SL-12 R/B(2)            
1 15772U 85042D   26176.55051329  .00000098  00000+0  65483-4 0  9999
2 15772  71.1066 219.8468 0036758 315.2048 194.6881 14.22007204129725
SL-14 R/B               
1 15945U 85069B   26176.71795968  .00000417  00000+0  44265-4 0  9992
2 15945  82.5274 283.3430 0018491 189.8086 170.2773 14.86521660188889
SL-16 R/B               
1 16182U 85097B   26176.76222350  .00000240  00000+0  14421-3 0  9996
2 16182  71.0034 273.0248 0005371  92.7451  76.3377 14.16612901102530
SL-14 R/B               
1 16496U 86006B   26176.66508654  .00000508  00000+0  51313-4 0  9997
2 16496  82.5266 158.1349 0074697 274.8064  84.4627 14.86953012165251
COSMOS 1743             
1 16719U 86034A   26176.82987380  .00057997  00000+0  52760-3 0  9991
2 16719  82.5275 319.5382 0004501 238.5577 121.5244 15.67713519197149
SL-14 R/B               
1 16792U 86046B   26176.70649486  .00000414  00000+0  44867-4 0  9996
2 16792  82.4820 338.1242 0021921 228.4752 131.4584 14.85676583142443
SL-14 R/B               
1 16882U 86055B   26176.69966225  .00000365  00000+0  39215-4 0  9993
2 16882  82.5200  25.1290 0018263 339.3366  88.2312 14.85728339135403
AJISAI (EGS)            
1 16908U 86061A   26176.88319402 -.00000113  00000+0 -10732-3 0  9994
2 16908  50.0081 120.6544 0011165 202.6488 201.1375 12.44516736481478
SL-14 R/B               
1 17567U 87024B   26176.56599527  .00000411  00000+0  44018-4 0  9993
2 17567  82.5281 351.3738 0016684 262.9193  97.0127 14.86218416104159
COSMOS 1833             
1 17589U 87027A   26176.81541223  .00000288  00000+0  17940-3 0  9993
2 17589  70.9200  98.7329 0023102  40.6807 319.6034 14.13056581 25592
SL-16 R/B               
1 17590U 87027B   26176.82739426  .00000217  00000+0  13151-3 0  9992
2 17590  71.0033  48.6216 0006691 302.9947  57.0533 14.17172130 30666
SL-14 R/B               
1 17912U 87038B   26176.54910981  .00000342  00000+0  36776-4 0  9996
2 17912  82.5004 195.1957 0019650 163.6397 196.5458 14.85449635 95241
COSMOS 1844             
1 17973U 87041A   26176.66350583  .00000155  00000+0  10521-3 0  9997
2 17973  70.8967 166.4273 0032438 223.0785 136.7798 14.14568120 18857
SL-14 R/B               
1 18153U 87055B   26176.70911131  .00000325  00000+0  34506-4 0  9999
2 18153  82.4988 247.1960 0021065  20.6245 339.5817 14.85716084 85970
COSMOS 1867             
1 18187U 87060A   26176.86584049 -.00000026  00000+0  27888-4 0  9997
2 18187  65.0115   3.7529 0016712 282.0755  77.8457 14.31516659 35420
SL-14 R/B               
1 18749U 88001B   26176.84642966  .00000360  00000+0  38796-4 0  9998
2 18749  82.5135  93.6277 0016652 238.3046 121.6548 14.85615036 58082
COSMOS 1933             
1 18958U 88020A   26176.86627057  .00003948  00000+0  18852-3 0  9992
2 18958  82.5123 143.8401 0004460 157.0313 203.1122 15.18764424 66644
SL-3 R/B                
1 19046U 88032B   26176.86214260  .00004125  00000+0  18838-3 0  9994
2 19046  97.5254 159.8940 0024459 212.9923 146.9787 15.20898121 68544
SL-16 R/B               
1 19120U 88039B   26176.50584961 -.00000076  00000+0 -13129-4 0  9995
2 19120  71.0129 200.5682 0021753 180.5948 179.5155 14.19630908973688
COSMOS 1953             
1 19210U 88050A   26176.71700229  .00009164  00000+0  31292-3 0  9993
2 19210  82.5079  49.4327 0012483 100.2777 259.9872 15.30086528 54297
SL-8 R/B                
1 19257U 88053B   26176.71342818  .00000156  00000+0  58796-4 0  9994
2 19257  74.0480 273.3408 0019228  65.5206  86.5476 14.38970456992139
COSMOS 1975             
1 19573U 88093A   26176.59460750  .00007978  00000+0  27793-3 0  9992
2 19573  82.5189   9.2440 0012059 143.7587 216.4472 15.29426678 35892
SL-14 R/B               
1 19574U 88093B   26176.84415558  .00000394  00000+0  42362-4 0  9992
2 19574  82.5317 300.5172 0021664  43.5095 115.2207 14.85747762 17071
SL-16 R/B               
1 19650U 88102B   26176.69328449  .00000259  00000+0  15490-3 0  9994
2 19650  71.0002 284.2409 0015323 213.2882 146.7278 14.16166267942181
INTERCOSMOS 24          
1 20261U 89080A   26176.67336841  .00000689  00000+0  19520-3 0  9998
2 20261  82.6057  34.1231 1188161  42.2344 326.4330 12.59673420680396
SL-14 R/B               
1 20262U 89080C   26176.80206678  .00000159  00000+0  47970-4 0  9991
2 20262  82.5941 103.7733 1228427 297.6830  50.4889 12.50574056673665
DELTA 1 R/B             
1 20323U 89089B   26176.49603331  .00000313  00000+0  85695-4 0  9998
2 20323  97.0635   6.7246 0069931 140.9810 219.6463 14.50736139911368
ARIANE 40 R/B           
1 20443U 90005H   26176.73072301  .00000225  00000+0  84932-4 0  9990
2 20443  98.2955 234.0812 0009056 235.2013 124.8324 14.39931482908352
DELTA 2 R/B(1)          
1 20453U 90008B   26176.01473069  .00092298  00000+0  64941-3 0  9999
2 20453  35.5990 183.2484 0064437 188.8546 171.1061 15.69968570942931
COSMOS 2058             
1 20465U 90010A   26176.80473317  .00003368  00000+0  19409-3 0  9997
2 20465  82.4692 300.8564 0008673 326.0889  33.9785 15.12068397958577
SL-14 R/B               
1 20466U 90010B   26176.46334481  .00000384  00000+0  43520-4 0  9995
2 20466  82.5018 166.1722 0018491 307.6333  52.3203 14.83651153944466
