OBJECT_NAME,OBJECT_ID,EPOCH,MEAN_MOTION,ECCENTRICITY,INCLINATION,RA_OF_ASC_NODE,ARG_OF_PERICENTER,MEAN_ANOMALY,EPHEMERIS_TYPE,CLASSIFICATION_TYPE,NORAD_CAT_ID,ELEMENT_SET_NO,REV_AT_EPOCH,BSTAR,MEAN_MOTION_DOT,MEAN_MOTION_DDOT
SL-12 R/B(2),1985-042D,2026-06-25T13:12:44.348256,14.22007204,.0036758,71.1066,219.8468,315.2048,194.6881,0,U,15772,999,12972,.65483E-4,.98E-6,0
SL-14 R/B,1985-069B,2026-06-25T17:13:51.716352,14.86521660,.0018491,82.5274,283.3430,189.8086,170.2773,0,U,15945,999,18888,.44265E-4,.417E-5,0
SL-16 R/B,1985-097B,2026-06-25T18:17:36.110400,14.16612901,.0005371,71.0034,273.0248,92.7451,76.3377,0,U,16182,999,10253,.14421E-3,.24E-5,0
SL-14 R/B,1986-006B,2026-06-25T15:57:43.477056,14.86953012,.0074697,82.5266,158.1349,274.8064,84.4627,0,U,16496,999,16525,.51313E-4,.508E-5,0
COSMOS 1743,1986-034A,2026-06-25T19:55:01.096320,15.67713519,.0004501,82.5275,319.5382,238.5577,121.5244,0,U,16719,999,19714,.5276E-3,.57997E-3,0
SL-14 R/B,1986-046B,2026-06-25T16:57:21.155904,14.85676583,.0021921,82.4820,338.1242,228.4752,131.4584,0,U,16792,999,14244,.44867E-4,.414E-5,0
SL-14 R/B,1986-055B,2026-06-25T16:47:30.818400,14.85728339,.0018263,82.5200,25.1290,339.3366,88.2312,0,U,16882,999,13540,.39215E-4,.365E-5,0
AJISAI (EGS),1986-061A,2026-06-25T21:11:47.963328,12.44516736,.0011165,50.0081,120.6544,202.6488,201.1375,0,U,16908,999,48147,-.10732E-3,-.113E-5,0
SL-14 R/B,1987-024B,2026-06-25T13:35:01.991328,14.86218416,.0016684,82.5281,351.3738,262.9193,97.0127,0,U,17567,999,10415,.44018E-4,.411E-5,0
COSMOS 1833,1987-027A,2026-06-25T19:34:11.616672,14.13056581,.0023102,70.9200,98.7329,40.6807,319.6034,0,U,17589,999,2559,.1794E-3,.288E-5,0
SL-16 R/B,1987-027B,2026-06-25T19:51:26.864064,14.17172130,.0006691,71.0033,48.6216,302.9947,57.0533,0,U,17590,999,3066,.13151E-3,.217E-5,0
SL-14 R/B,1987-038B,2026-06-25T13:10:43.087584,14.85449635,.001965,82.5004,195.1957,163.6397,196.5458,0,U,17912,999,9524,.36776E-4,.342E-5,0
COSMOS 1844,1987-041A,2026-06-25T15:55:26.903712,14.14568120,.0032438,70.8967,166.4273,223.0785,136.7798,0,U,17973,999,1885,.10521E-3,.155E-5,0
SL-14 R/B,1987-055B,2026-06-25T17:01:07.217184,14.85716084,.0021065,82.4988,247.1960,20.6245,339.5817,0,U,18153,999,8597,.34506E-4,.325E-5,0
COSMOS 1867,1987-060A,2026-06-25T20:46:48.618336,14.31516659,.0016712,65.0115,3.7529,282.0755,77.8457,0,U,18187,999,3542,.27888E-4,-.26E-6,0
SL-14 R/B,1988-001B,2026-06-25T20:18:51.522624,14.85615036,.0016652,82.5135,93.6277,238.3046,121.6548,0,U,18749,999,5808,.38796E-4,.36E-5,0
COSMOS 1933,1988-020A,2026-06-25T20:47:25.777248,15.18764424,.000446,82.5123,143.8401,157.0313,203.1122,0,U,18958,999,6664,.18852E-3,.3948E-4,0
SL-3 R/B,1988-032B,2026-06-25T20:41:29.120640,15.20898121,.0024459,97.5254,159.8940,212.9923,146.9787,0,U,19046,999,6854,.18838E-3,.4125E-4,0
SL-16 R/B,1988-039B,2026-06-25T12:08:25.406304,14.19630908,.0021753,71.0129,200.5682,180.5948,179.5155,0,U,19120,999,97368,-.13129E-4,-.76E-6,0
COSMOS 1953,1988-050A,2026-06-25T17:12:28.997856,15.30086528,.0012483,82.5079,49.4327,100.2777,259.9872,0,U,19210,999,5429,.31292E-3,.9164E-4,0
SL-8 R/B,1988-053B,2026-06-25T17:07:20.194752,14.38970456,.0019228,74.0480,273.3408,65.5206,86.5476,0,U,19257,999,99213,.58796E-4,.156E-5,0
COSMOS 1975,1988-093A,2026-06-25T14:16:14.088000,15.29426678,.0012059,82.5189,9.2440,143.7587,216.4472,0,U,19573,999,3589,.27793E-3,.7978E-4,0
SL-14 R/B,1988-093B,2026-06-25T20:15:35.042112,14.85747762,.0021664,82.5317,300.5172,43.5095,115.2207,0,U,19574,999,1707,.42362E-4,.394E-5,0
SL-16 R/B,1988-102B,2026-06-25T16:38:19.779936,14.16166267,.0015323,71.0002,284.2409,213.2882,146.7278,0,U,19650,999,94218,.1549E-3,.259E-5,0
INTERCOSMOS 24,1989-080A,2026-06-25T16:09:39.030624,12.59673420,.1188161,82.6057,34.1231,42.2344,326.4330,0,U,20261,999,68039,.1952E-3,.689E-5,0
SL-14 R/B,1989-080C,2026-06-25T19:14:58.569792,12.50574056,.1228427,82.5941,103.7733,297.6830,50.4889,0,U,20262,999,67366,.4797E-4,.159E-5,0
DELTA 1 R/B,1989-089B,2026-06-25T11:54:17.277984,14.50736139,.0069931,97.0635,6.7246,140.9810,219.6463,0,U,20323,999,91136,.85695E-4,.313E-5,0
ARIANE 40 R/B,1990-005H,2026-06-25T17:32:14.468064,14.39931482,.0009056,98.2955,234.0812,235.2013,124.8324,0,U,20443,999,90835,.84932E-4,.225E-5,0
DELTA 2 R/B(1),1990-008B,2026-06-25T00:21:12.731616,15.69968570,.00644378,35.5990,183.2484,188.8546,171.1061,0,U,20453,999,94293,.64941232E-3,.92298E-3,0
COSMOS 2058,1990-010A,2026-06-25T19:18:48.945888,15.12068397,.0008673,82.4692,300.8564,326.0889,33.9785,0,U,20465,999,95857,.19409E-3,.3368E-4,0
SL-14 R/B,1990-010B,2026-06-25T11:07:12.991584,14.83651153,.0018491,82.5018,166.1722,307.6333,52.3203,0,U,20466,999,94446,.4352E-4,.384E-5,0
